{"type":"FeatureCollection","features":[{"type":"Feature","geometry":{"coordinates":[1.205915,43.296232],"type":"Point"},"properties":{"id":"erp:ERP_____0000002204117158","concerne":false,"erpMatched":false,"nom":"FUNERARIUM","adresse":"ZI DE NAUDON"}},{"type":"Feature","geometry":{"coordinates":[1.227536,43.300106],"type":"Point"},"properties":{"id":"BATIMENT0000000343241983","concerne":false,"erpMatched":true,"nom":"EHPAD JALLIER","classeVulnerabilite":"Établissement sensible (enseignement, santé ou secours)","adresse":"AVENUE ETIENNE PROSJEAN"}},{"type":"Feature","geometry":{"coordinates":[1.22114,43.296992],"type":"Point"},"properties":{"id":"BATIMENT0000000343240225","concerne":false,"erpMatched":true,"nom":"BIBLIOTHEQUE MUNICIPALE","adresse":"RUE LUCIEN CASSAGNE"}},{"type":"Feature","geometry":{"coordinates":[1.229581,43.306165],"type":"Point"},"properties":{"id":"erp:ERP_____0000002204117117","concerne":false,"erpMatched":false,"nom":"GYMNASE ANDRE ABBAL","adresse":"ROUTE DE MARQUEFAVE"}},{"type":"Feature","geometry":{"coordinates":[1.224456,43.295756],"type":"Point"},"properties":{"id":"BATIMENT0000000343239564","zoneCode":"GHg","zoneLabel":"Grise hachurée (aggravation glissement)","zoneColor":"#6E6E6E","concerne":true,"regime":"Constructions nouvelles : Autorisées, sous prescriptions de gestion des eaux (pas de nouveaux rejets infiltrés, réseaux étanches). Constructions existantes : Prescriptions identiques : maîtrise des rejets, étanchéité en cas de mise en charge des réseaux.","etudeGeotechniqueG2":false,"diagnostic":"Non concerné (hors zone inondable).","zoneRefuge":"Non applicable (zone hors risque inondation).","refugeCategorie":"Non applicable","zonesIntersectees":"GHg","etagePresent":"Oui","etageSource":"connu (BDNB Fichiers Fonciers nb_niveau=2)","typologie":"Activité économique","eligibiliteFprnm":"Potentiellement éligible - activité : Fonds Barnier (FPRNM) à 20 % des travaux prescrits si moins de 20 salariés (effectif non déductible des données géographiques, à vérifier), sous réserve d'un bien existant avant le 21/06/2022.","nbLogements":1,"hauteurM":7.5,"isErp":true,"erpMatched":true,"nom":"HOTEL RESTAURANT AUBERGE CARBONA","adresse":"PLACE DE LA REPUBLIQUE"}},{"type":"Feature","geometry":{"coordinates":[1.232192,43.307005],"type":"Point"},"properties":{"id":"erp:ERP_____0000002204117119","concerne":false,"erpMatched":false,"nom":"COLLEGE ANDRE ABBAL","classeVulnerabilite":"Établissement sensible (enseignement, santé ou secours)","adresse":"CHEMIN MARQUEFAVE"}},{"type":"Feature","geometry":{"coordinates":[1.218505,43.320382],"type":"Point"},"properties":{"id":"erp:ERP_____0000002204117120","concerne":false,"erpMatched":false,"nom":"GROUPE SCOLAIRE HENRI CHANFREAU","classeVulnerabilite":"Établissement sensible (enseignement, santé ou secours)","adresse":"AVENUE PROJEAN"}},{"type":"Feature","geometry":{"coordinates":[1.2519,43.285396],"type":"Point"},"properties":{"id":"erp:ERP_____0000002204117121","zoneCode":"RHg","zoneLabel":"Rouge hachurée mouvement de terrain","zoneColor":"#E2001A","concerne":true,"regime":"Constructions nouvelles : Construction de bâtiments nouveaux à usage d'habitation interdite. Constructions existantes : Extension RDC <50 m² une fois depuis le 06/02/2018 sans étude si dénivelé <0,5 m ; au-delà, étude géotechnique G2 requise. Étude géotechnique G2 (norme NF P 94-500) obligatoire avant travaux, sauf exceptions ponctuelles prévues par le règlement.","etudeGeotechniqueG2":true,"diagnostic":"Non concerné (hors zone inondable).","isErp":true,"erpMatched":false,"nom":"CENTRE SOCIO CULTUREL ET SPORTIF","adresse":"ROUTE DE LACAUGNE"}},{"type":"Feature","geometry":{"coordinates":[1.225308,43.297651],"type":"Point"},"properties":{"id":"BATIMENT0000000343240678","concerne":false,"erpMatched":true,"nom":"LEADER-PRICE","adresse":"AVENUE DE TOULOUSE"}},{"type":"Feature","geometry":{"coordinates":[1.190435,43.281575],"type":"Point"},"properties":{"id":"erp:ERP_____0000002204117123","concerne":false,"erpMatched":false,"nom":"CENTRE DE VACANCES A.S.P.T.T","classeVulnerabilite":"Établissement sensible (enseignement, santé ou secours)","adresse":"ROUTE DE CAZERES"}},{"type":"Feature","geometry":{"coordinates":[1.222109,43.312559],"type":"Point"},"properties":{"id":"BATIMENT0000002340112108","concerne":false,"erpMatched":true,"nom":"GARAGE AUTOMOBILE CITROEN","adresse":"LIEU DIT MILLET"}},{"type":"Feature","geometry":{"coordinates":[1.22515,43.295572],"type":"Point"},"properties":{"id":"BATIMENT0000000343239807","zoneCode":"GHg","zoneLabel":"Grise hachurée (aggravation glissement)","zoneColor":"#6E6E6E","concerne":true,"regime":"Constructions nouvelles : Autorisées, sous prescriptions de gestion des eaux (pas de nouveaux rejets infiltrés, réseaux étanches). Constructions existantes : Prescriptions identiques : maîtrise des rejets, étanchéité en cas de mise en charge des réseaux.","etudeGeotechniqueG2":false,"diagnostic":"Non concerné (hors zone inondable).","zoneRefuge":"Non applicable (zone hors risque inondation).","refugeCategorie":"Non applicable","zonesIntersectees":"GHg","etagePresent":"Oui","etageSource":"connu (BDNB Fichiers Fonciers nb_niveau=2)","typologie":"Activité économique","eligibiliteFprnm":"Potentiellement éligible - activité : Fonds Barnier (FPRNM) à 20 % des travaux prescrits si moins de 20 salariés (effectif non déductible des données géographiques, à vérifier), sous réserve d'un bien existant avant le 21/06/2022.","nbLogements":0,"hauteurM":9.4,"isErp":true,"erpMatched":true,"nom":"COMMERCE","adresse":"RUE JEAN JAURES"}},{"type":"Feature","geometry":{"coordinates":[1.218505,43.320382],"type":"Point"},"properties":{"id":"erp:ERP_____0000002204117126","concerne":false,"erpMatched":false,"nom":"CONTROLE TECHNIQUE","adresse":"LIEU DIT BALONDRADE"}},{"type":"Feature","geometry":{"coordinates":[1.223369,43.31021],"type":"Point"},"properties":{"id":"erp:ERP_____0000002204117127","concerne":false,"erpMatched":false,"nom":"AGENCE RENAULT RAMEIL ET FILS","adresse":"ROUTE DE LONGAGES"}},{"type":"Feature","geometry":{"coordinates":[1.226865,43.293996],"type":"Point"},"properties":{"id":"erp:ERP_____0000002204117128","concerne":false,"erpMatched":false,"nom":"BANQUE COURTOIS","adresse":"PLACE JULES FERRY"}},{"type":"Feature","geometry":{"coordinates":[1.220714,43.292397],"type":"Point"},"properties":{"id":"erp:ERP_____0000002204117129","zoneCode":"Ri","zoneLabel":"Rouge inondation","zoneColor":"#E2001A","concerne":true,"regime":"Constructions nouvelles : Interdites, sauf exceptions très limitées (accès de sécurité, abris légers <20 m² une fois, locaux techniques agricoles, serres tunnel...). Constructions existantes : Extension limitée à 20 % de l'emprise existante, une seule fois depuis le 06/02/2018, plancher au-dessus des PHEC.","etudeGeotechniqueG2":false,"diagnostic":"Non explicitement obligatoire pour ce type d'ERP (à vérifier sur site) ; auto-diagnostic de vulnérabilité recommandé.","zoneRefuge":"Conditionnelle : si le plancher ne peut pas être calé au-dessus des PHEC (impossibilité fonctionnelle dûment justifiée), un niveau refuge adapté est exigé (20 m² minimum pour une habitation, hauteur 1,80 m minimum, un refuge par logement/local, pas de refuge \"collectif\").","refugeCategorie":"Conditionnelle (impossibilité fonctionnelle à justifier)","isErp":true,"erpMatched":false,"nom":"SYNDICAT D'INITIATIVE-BIBLIOTHEQUE","adresse":"ALLEES FREDERIC MISTRAL"}},{"type":"Feature","geometry":{"coordinates":[1.22656,43.29398],"type":"Point"},"properties":{"id":"erp:ERP_____0000002204117130","concerne":false,"erpMatched":false,"nom":"MAIRIE","adresse":"PLACE JULES FERRY"}},{"type":"Feature","geometry":{"coordinates":[1.22656,43.29398],"type":"Point"},"properties":{"id":"erp:ERP_____0000002204117131","concerne":false,"erpMatched":false,"nom":"FOYER DU 3°AGE","adresse":"PLACE JULES FERRY"}},{"type":"Feature","geometry":{"coordinates":[1.225763,43.294794],"type":"Point"},"properties":{"id":"BATIMENT0000000343240018","concerne":false,"erpMatched":true,"nom":"SALON ESTHETIQUE BELLE DU SUD"}},{"type":"Feature","geometry":{"coordinates":[1.224378,43.296173],"type":"Point"},"properties":{"id":"BATIMENT0000000343240637","concerne":false,"erpMatched":true,"nom":"DEBIT DE BOISSON","adresse":"PLACE DU PREAU"}},{"type":"Feature","geometry":{"coordinates":[1.225759,43.294313],"type":"Point"},"properties":{"id":"BATIMENT0000000343239928","concerne":false,"erpMatched":true,"nom":"PIZZERIAFANNY","adresse":"RUE JEAN JAURES"}},{"type":"Feature","geometry":{"coordinates":[1.224815,43.295972],"type":"Point"},"properties":{"id":"BATIMENT0000000343240647","concerne":false,"erpMatched":true,"nom":"SUPERETTE CASINO","adresse":"PLACE DE LA REPUBLIQUE"}},{"type":"Feature","geometry":{"coordinates":[1.218505,43.320382],"type":"Point"},"properties":{"id":"erp:ERP_____0000002204117136","concerne":false,"erpMatched":false,"nom":"CAFE MUSIQUE (ASSOCIATION FRESCO)","adresse":"SALLE DES FETES"}},{"type":"Feature","geometry":{"coordinates":[1.22356,43.310041],"type":"Point"},"properties":{"id":"BATIMENT0000000343234357","concerne":false,"erpMatched":true,"nom":"BUREAUX","adresse":"ROUTE DE LONGAGE"}},{"type":"Feature","geometry":{"coordinates":[1.222275,43.296935],"type":"Point"},"properties":{"id":"BATIMENT0000000343240575","concerne":false,"erpMatched":true,"nom":"CENTRE ASSOCIATIF","classeVulnerabilite":"Établissement sensible (enseignement, santé ou secours)","adresse":"RUE LUCIEN CASSAGNE"}},{"type":"Feature","geometry":{"coordinates":[1.225555,43.294588],"type":"Point"},"properties":{"id":"BATIMENT0000000343240008","zoneCode":"GHg","zoneLabel":"Grise hachurée (aggravation glissement)","zoneColor":"#6E6E6E","concerne":true,"regime":"Constructions nouvelles : Autorisées, sous prescriptions de gestion des eaux (pas de nouveaux rejets infiltrés, réseaux étanches). Constructions existantes : Prescriptions identiques : maîtrise des rejets, étanchéité en cas de mise en charge des réseaux.","etudeGeotechniqueG2":false,"diagnostic":"Non concerné (hors zone inondable).","zoneRefuge":"Non applicable (zone hors risque inondation).","refugeCategorie":"Non applicable","zonesIntersectees":"GHg","etagePresent":"Oui","etageSource":"connu (BDNB Fichiers Fonciers nb_niveau=2)","typologie":"Maison individuelle","eligibiliteFprnm":"Éligible - habitation : Fonds Barnier (FPRNM) à 80 % des travaux de prévention prescrits par le PPRN, plafond légal national, sous réserve d'un bien existant avant le 21/06/2022.","nbLogements":1,"hauteurM":9.9,"isErp":true,"erpMatched":true,"nom":"PHARMACIE","adresse":"RUE JEAN JAURES"}},{"type":"Feature","geometry":{"coordinates":[1.218505,43.320382],"type":"Point"},"properties":{"id":"erp:ERP_____0000002204117141","concerne":false,"erpMatched":false,"nom":"MAGASIN DE MATERIAUX CARMAT","adresse":"LIEU DIT FANJAU"}},{"type":"Feature","geometry":{"coordinates":[1.21807,43.296472],"type":"Point"},"properties":{"id":"BATIMENT0000000343240117","concerne":false,"erpMatched":true,"nom":"CENTRE COMMERCIAL","adresse":"ROUTE DE L'ARIZE"}},{"type":"Feature","geometry":{"coordinates":[1.225381,43.295247],"type":"Point"},"properties":{"id":"BATIMENT0000000343239999","concerne":false,"erpMatched":true,"nom":"PATISSERIE GELIS","adresse":"RUE JEAN JAURES"}},{"type":"Feature","geometry":{"coordinates":[1.226361,43.294672],"type":"Point"},"properties":{"id":"BATIMENT0000000343239969","concerne":false,"erpMatched":true,"nom":"CREDIT AGRICOLE","adresse":"RUE GAMBETTA"}},{"type":"Feature","geometry":{"coordinates":[1.222238,43.305245],"type":"Point"},"properties":{"id":"erp:ERP_____0000002204117145","concerne":false,"erpMatched":false,"nom":"MAGASIN","adresse":"ROUTE DE L'ARIZE"}},{"type":"Feature","geometry":{"coordinates":[1.204836,43.288871],"type":"Point"},"properties":{"id":"BATIMENT0000000343239532","concerne":false,"erpMatched":true,"nom":"RESTAURANT CHATEAU DE LA TERRASSE","adresse":"AVENUE ARISTIDE BRIAND"}},{"type":"Feature","geometry":{"coordinates":[1.22356,43.310041],"type":"Point"},"properties":{"id":"BATIMENT0000000343234357","concerne":false,"erpMatched":true,"nom":"AGENCE COMPTABLE","adresse":"ROUTE DE LONGUAGES"}},{"type":"Feature","geometry":{"coordinates":[1.226428,43.294446],"type":"Point"},"properties":{"id":"BATIMENT0000000343241878","concerne":false,"erpMatched":true,"nom":"BUREAUX","adresse":"RUE GAMBETTA"}},{"type":"Feature","geometry":{"coordinates":[1.221944,43.306472],"type":"Point"},"properties":{"id":"BATIMENT0000000343240795","concerne":false,"erpMatched":true,"nom":"ATELIER D'EBENISTERIE","adresse":"CHEMIN DE L'INDUSTRIE"}},{"type":"Feature","geometry":{"coordinates":[1.224986,43.299754],"type":"Point"},"properties":{"id":"BATIMENT0000000343240996","concerne":false,"erpMatched":true,"nom":"HOTEL DE LA COMM DE COMMUNE DU VOLVESTRE","adresse":"AVENUE DE TOULOUSE"}},{"type":"Feature","geometry":{"coordinates":[1.229238,43.289615],"type":"Point"},"properties":{"id":"BATIMENT0000000343236158","concerne":false,"erpMatched":true,"nom":"CLUB HOUSE RUGBY","adresse":"RUE DU PILA"}},{"type":"Feature","geometry":{"coordinates":[1.221169,43.303319],"type":"Point"},"properties":{"id":"BATIMENT0000000343241089","concerne":false,"erpMatched":true,"nom":"AUTO ECOLE","adresse":"ROUTE DE L'ARIZE"}},{"type":"Feature","geometry":{"coordinates":[1.226044,43.295504],"type":"Point"},"properties":{"id":"BATIMENT0000000343239975","concerne":false,"erpMatched":true,"nom":"CAISSE D'EPARGNE","adresse":"RUE GAMBETTA"}},{"type":"Feature","geometry":{"coordinates":[1.221125,43.297967],"type":"Point"},"properties":{"id":"BATIMENT0000000343240330","concerne":false,"erpMatched":true,"nom":"BOULODROME","adresse":"LES CLAOUS"}},{"type":"Feature","geometry":{"coordinates":[1.219419,43.303598],"type":"Point"},"properties":{"id":"BATIMENT0000000343241288","concerne":false,"erpMatched":true,"nom":"MAGASIN NETTO CARBONNE","adresse":"IMPASSE DU BAQUE"}},{"type":"Feature","geometry":{"coordinates":[1.218505,43.320382],"type":"Point"},"properties":{"id":"erp:ERP_____0000002204117156","concerne":false,"erpMatched":false,"nom":"RECH ET FABR INFORMATIQUE","adresse":"LIEU DIT LE BAQUE"}},{"type":"Feature","geometry":{"coordinates":[1.22252,43.306664],"type":"Point"},"properties":{"id":"erp:ERP_____0000002204117157","concerne":false,"erpMatched":false,"nom":"JARDINERIE GAMM VERT","adresse":"ROND POINT DE L'ARIZE"}},{"type":"Feature","geometry":{"coordinates":[1.200131,43.291622],"type":"Point"},"properties":{"id":"erp:ERP_____0000002204117159","concerne":false,"erpMatched":false,"nom":"ASSOCIATION EMMAUS","adresse":"RUE DES ARTISANS"}},{"type":"Feature","geometry":{"coordinates":[1.226263,43.297593],"type":"Point"},"properties":{"id":"BATIMENT0000000343240606","concerne":false,"erpMatched":true,"nom":"CRECHE.HALTE GARDERIE","classeVulnerabilite":"Établissement sensible (enseignement, santé ou secours)","adresse":"AVENUE ETIENNE PROSJEAN"}},{"type":"Feature","geometry":{"coordinates":[1.224742,43.296835],"type":"Point"},"properties":{"id":"BATIMENT0000000343240632","concerne":false,"erpMatched":true,"nom":"OFFICE DU TOURISME","adresse":"PLACE DE LA REPUBLIQUE"}},{"type":"Feature","geometry":{"coordinates":[1.218372,43.291809],"type":"Point"},"properties":{"id":"erp:ERP_____0000002204117162","zoneCode":"Bi","zoneLabel":"Bleue inondation","zoneColor":"#4FA8E0","concerne":true,"regime":"Constructions nouvelles : Autorisées sous prescriptions (plancher au-dessus des PHEC, transparence hydraulique, matériaux les moins vulnérables). Constructions existantes : Extension jusqu'à 30 % de l'emprise existante, une seule fois depuis le 06/02/2018.","etudeGeotechniqueG2":false,"diagnostic":"Non explicitement obligatoire pour ce type d'ERP (à vérifier sur site) ; auto-diagnostic de vulnérabilité recommandé.","zoneRefuge":"Conditionnelle : si le plancher ne peut pas être calé au-dessus des PHEC (impossibilité fonctionnelle dûment justifiée), un niveau refuge adapté est exigé (20 m² minimum pour une habitation, hauteur 1,80 m minimum, un refuge par logement/local, pas de refuge \"collectif\").","refugeCategorie":"Conditionnelle (impossibilité fonctionnelle à justifier)","isErp":true,"erpMatched":false,"nom":"FOYER DES AINEES","adresse":"ALLEES FREDERIC MISTRAL"}},{"type":"Feature","geometry":{"coordinates":[1.221944,43.306472],"type":"Point"},"properties":{"id":"BATIMENT0000000343240795","concerne":false,"erpMatched":true,"nom":"BAT INDUSTRIEL ET BUREAUX","adresse":"CHEMIN DE L'INDUSTRIE"}},{"type":"Feature","geometry":{"coordinates":[1.221944,43.306472],"type":"Point"},"properties":{"id":"BATIMENT0000000343240795","concerne":false,"erpMatched":true,"nom":"CARBONNE MATERIAUX GEDIMAT","adresse":"CHEMIN DE L'INDUSTRIE"}},{"type":"Feature","geometry":{"coordinates":[1.221944,43.306472],"type":"Point"},"properties":{"id":"BATIMENT0000000343240795","concerne":false,"erpMatched":true,"nom":"CLINIQUE VETERINAIRE","adresse":"CHEMIN DE L'INDUSTRIE"}},{"type":"Feature","geometry":{"coordinates":[1.226107,43.295357],"type":"Point"},"properties":{"id":"BATIMENT0000000343239970","concerne":false,"erpMatched":true,"nom":"AGENCE IMMOBILIERE","adresse":"RUE GAMBETTA"}},{"type":"Feature","geometry":{"coordinates":[1.224378,43.296173],"type":"Point"},"properties":{"id":"BATIMENT0000000343240637","concerne":false,"erpMatched":true,"nom":"ANIMALERIE AMISMALINS","adresse":"ZONE INDUSTRIELLE DUPEAU"}},{"type":"Feature","geometry":{"coordinates":[1.226263,43.297593],"type":"Point"},"properties":{"id":"BATIMENT0000000343240606","concerne":false,"erpMatched":true,"nom":"PREFABRIQUES GROUPE SCOLAIRE CHANFREAU","classeVulnerabilite":"Établissement sensible (enseignement, santé ou secours)","adresse":"AVENUE ETIENNE PROSJEAN"}},{"type":"Feature","geometry":{"coordinates":[1.201773,43.289799],"type":"Point"},"properties":{"id":"erp:ERP_____0000002204117169","concerne":false,"erpMatched":false,"nom":"UNITE TERRITORIALE SUD DDE","adresse":"LIEU DIT LAUJOL"}},{"type":"Feature","geometry":{"coordinates":[1.221833,43.297042],"type":"Point"},"properties":{"id":"BATIMENT0000000343240519","concerne":false,"erpMatched":true,"nom":"MUTUALITE SOCIALE AGRICOLE HAUTE GARONNE","adresse":"RUE LUCIEN CASSAGNE"}},{"type":"Feature","geometry":{"coordinates":[1.226255,43.294982],"type":"Point"},"properties":{"id":"BATIMENT0000000343239960","concerne":false,"erpMatched":true,"nom":"RESTAURANT LE ST LAURENT","adresse":"RUE GAMBETTA"}},{"type":"Feature","geometry":{"coordinates":[1.206408,43.2892],"type":"Point"},"properties":{"id":"BATIMENT0000000343239516","concerne":false,"erpMatched":true,"nom":"CHATEAU DE LA TERRASSE","adresse":"AVENUE ARISTIDE BRIAND"}},{"type":"Feature","geometry":{"coordinates":[1.222109,43.312559],"type":"Point"},"properties":{"id":"BATIMENT0000002340112108","concerne":false,"erpMatched":true,"nom":"GROUPE SCOLAIRE GUY HELLE","classeVulnerabilite":"Établissement sensible (enseignement, santé ou secours)","adresse":"LIEU DIT MILLET"}},{"type":"Feature","geometry":{"coordinates":[1.225259,43.3093],"type":"Point"},"properties":{"id":"erp:ERP_____0000002204117174","concerne":false,"erpMatched":false,"nom":"BATIMENT 306 HOPITAL MARCHANT : PLATEAU INFANTO-JUVENILE","classeVulnerabilite":"Établissement sensible (enseignement, santé ou secours)","adresse":"CHEMIN DE NAUZE"}},{"type":"Feature","geometry":{"coordinates":[1.220369,43.310287],"type":"Point"},"properties":{"id":"erp:ERP_____0000002204117175","concerne":false,"erpMatched":false,"nom":"CENTRAKOR","adresse":"AVENUE JEAN MONNET"}},{"type":"Feature","geometry":{"coordinates":[1.220369,43.310287],"type":"Point"},"properties":{"id":"erp:ERP_____0000002204117176","concerne":false,"erpMatched":false,"nom":"WELDOM","adresse":"AVENUE JEAN MONNET"}},{"type":"Feature","geometry":{"coordinates":[1.225363,43.295306],"type":"Point"},"properties":{"id":"BATIMENT0000000343240006","concerne":false,"erpMatched":true,"nom":"OPTIQUE GALAN","adresse":"RUE JEAN JAURES"}},{"type":"Feature","geometry":{"coordinates":[1.227156,43.291983],"type":"Point"},"properties":{"id":"BATIMENT0000000343241789","concerne":false,"erpMatched":true,"nom":"CENTRE MEDICAL","adresse":"CHEMIN ABBAL"}},{"type":"Feature","geometry":{"coordinates":[1.227536,43.300106],"type":"Point"},"properties":{"id":"BATIMENT0000000343241983","concerne":false,"erpMatched":true,"nom":"EHPAD JALLIER ANNEXE","classeVulnerabilite":"Établissement sensible (enseignement, santé ou secours)","adresse":"AVENUE ETIENNE PROJEAN"}},{"type":"Feature","geometry":{"coordinates":[1.2519,43.285396],"type":"Point"},"properties":{"id":"erp:ERP_____0000002204117180","zoneCode":"RHg","zoneLabel":"Rouge hachurée mouvement de terrain","zoneColor":"#E2001A","concerne":true,"regime":"Constructions nouvelles : Construction de bâtiments nouveaux à usage d'habitation interdite. Constructions existantes : Extension RDC <50 m² une fois depuis le 06/02/2018 sans étude si dénivelé <0,5 m ; au-delà, étude géotechnique G2 requise. Étude géotechnique G2 (norme NF P 94-500) obligatoire avant travaux, sauf exceptions ponctuelles prévues par le règlement.","etudeGeotechniqueG2":true,"diagnostic":"Non concerné (hors zone inondable).","isErp":true,"erpMatched":false,"nom":"CTS 67.850 (FOIRE DU VOLVESTRE - SITE DU CENTRE SOCIO-CULTUREL)","adresse":"ROUTE DE LACAUGNE"}},{"type":"Feature","geometry":{"coordinates":[1.222238,43.305245],"type":"Point"},"properties":{"id":"erp:ERP_____0000002204117181","concerne":false,"erpMatched":false,"nom":"AUCHAN SUPERMARCHE (EX SIMPLY MARKET) CARBONNE","adresse":"ROUTE DE L'ARIZE"}},{"type":"Feature","geometry":{"coordinates":[1.231223,43.308994],"type":"Point"},"properties":{"id":"erp:ERP_____0000002204122733","concerne":false,"erpMatched":false,"nom":"MAISON DU FOOTBALL","adresse":"DOMAINE DE SEDE"}}]}